{"fetched_at":"2026-03-29T16:36:15Z","count":15609,"tles":[{"name":"STARLINK-34535","line1":"1 64698U 25142C   26087.89099833  .00005882  00000+0  50019-3 0  9999","line2":"2 64698  70.0002 266.1469 0002895 269.1557  90.9270 14.98340027 42345","category":"Starlink"}]}